ONEWEB-0716             
1 55177U 23004AP  26023.76643687  .00000066  00000+0  13611-3 0  9990
2 55177  87.9082  34.5691 0001656  85.4033 274.7288 13.17648661148565
ONEWEB-0717             
1 55178U 23004AQ  26023.97737202  .00000066  00000+0  13660-3 0  9995
2 55178  87.9095  34.5021 0002524  96.6292 263.5127 13.17649587148648
ONEWEB-0719             
1 55179U 23004AR  26023.98750680  .00000049  00000+0  93847-4 0  9999
2 55179  87.9094  34.4822 0001852  84.7469 275.3874 13.17648481148599
ONEWEB-0530             
1 55796U 23029A   26024.00104153 -.00000040  00000+0 -13111-3 0  9991
2 55796  87.9225 303.2505 0002198  76.3915 283.7463 13.20772123142116
ONEWEB-0534             
1 55797U 23029B   26023.53387907 -.00000026  00000+0 -96211-4 0  9996
2 55797  87.9222 303.3429 0001664  72.6537 287.4778 13.20773112142058
ONEWEB-0556             
1 55798U 23029C   26023.31291549  .00000061  00000+0  11740-3 0  9999
2 55798  87.9226 303.3883 0002140  50.8888 309.2436 13.20771702142028
ONEWEB-0562             
1 55799U 23029D   26023.75483279 -.00000042  00000+0 -13591-3 0  9998
2 55799  87.9222 303.2811 0002534  68.5985 291.5419 13.20772096142083
ONEWEB-0563             
1 55800U 23029E   26023.90003314  .00000032  00000+0  48011-4 0  9999
2 55800  87.9229 303.2814 0001569  67.2836 292.8463 13.20773097142090
